{
  "type": "FeatureCollection",
  "features": [
    {
      "type": "Feature",
      "properties": {
        "norad_id": 66909,
        "name": "SILVERSAT",
        "group": "stations",
        "lat": -42.73670234380011,
        "lon": -27.836061283250338,
        "alt_km": 411.2826240610648,
        "timestamp": "2025-12-20T05:41:48.772511+00:00",
        "meta_object_name": "SILVERSAT",
        "meta_object_id": "1998-067XV",
        "meta_epoch": "2025-12-19T13:13:09.424128",
        "meta_mean_motion": 15.5251652,
        "meta_eccentricity": 0.0003839,
        "meta_inclination": 51.6306,
        "meta_ra_of_asc_node": 108.5226,
        "meta_arg_of_pericenter": 268.696,
        "meta_mean_anomaly": 91.359,
        "meta_ephemeris_type": 0,
        "meta_classification_type": "U",
        "meta_norad_cat_id": 66909,
        "meta_element_set_no": 999,
        "meta_rev_at_epoch": 267,
        "meta_bstar": 0.00079912,
        "meta_mean_motion_dot": 0.00049748,
        "meta_mean_motion_ddot": 0,
        "tle_line1": "1 66909U 98067XV  25353.55080352  .00049748  00000+0  79912-3 0  9998",
        "tle_line2": "2 66909  51.6306 108.5226 0003839 268.6960  91.3590 15.52516520  2671"
      },
      "geometry": {
        "type": "Point",
        "coordinates": [
          -27.836061283250338,
          -42.73670234380011
        ]
      }
    },
    {
      "type": "Feature",
      "properties": {
        "norad_id": 66910,
        "name": "1998-067XW",
        "group": "stations",
        "lat": -47.430366171647286,
        "lon": -15.313757127826818,
        "alt_km": 410.7073470301584,
        "timestamp": "2025-12-20T05:41:48.772521+00:00",
        "meta_object_name": "1998-067XW",
        "meta_object_id": "1998-067XW",
        "meta_epoch": "2025-12-19T13:10:35.176800",
        "meta_mean_motion": 15.525263,
        "meta_eccentricity": 0.0004382,
        "meta_inclination": 51.6305,
        "meta_ra_of_asc_node": 108.5102,
        "meta_arg_of_pericenter": 243.3936,
        "meta_mean_anomaly": 116.6605,
        "meta_ephemeris_type": 0,
        "meta_classification_type": "U",
        "meta_norad_cat_id": 66910,
        "meta_element_set_no": 999,
        "meta_rev_at_epoch": 267,
        "meta_bstar": 0.00069409,
        "meta_mean_motion_dot": 0.0004313,
        "meta_mean_motion_ddot": 0,
        "tle_line1": "1 66910U 98067XW  25353.54901825  .00043130  00000+0  69409-3 0  9995",
        "tle_line2": "2 66910  51.6305 108.5102 0004382 243.3936 116.6605 15.52526300  2677"
      },
      "geometry": {
        "type": "Point",
        "coordinates": [
          -15.313757127826818,
          -47.430366171647286
        ]
      }
    },
    {
      "type": "Feature",
      "properties": {
        "norad_id": 66911,
        "name": "1998-067XX",
        "group": "stations",
        "lat": -51.117992540035125,
        "lon": 4.333392326626012,
        "alt_km": 409.8999399853983,
        "timestamp": "2025-12-20T05:41:48.772553+00:00",
        "meta_object_name": "1998-067XX",
        "meta_object_id": "1998-067XX",
        "meta_epoch": "2025-12-19T19:18:04.960512",
        "meta_mean_motion": 15.52964022,
        "meta_eccentricity": 0.00039341,
        "meta_inclination": 51.6304,
        "meta_ra_of_asc_node": 107.215,
        "meta_arg_of_pericenter": 254.2011,
        "meta_mean_anomaly": 105.8545,
        "meta_ephemeris_type": 0,
        "meta_classification_type": "U",
        "meta_norad_cat_id": 66911,
        "meta_element_set_no": 999,
        "meta_rev_at_epoch": 270,
        "meta_bstar": 0.00082358587,
        "meta_mean_motion_dot": 0.00052143,
        "meta_mean_motion_ddot": 0,
        "tle_line1": "1 66911U 98067XX  25353.80422408  .00052143  00000+0  82359-3 0  9993",
        "tle_line2": "2 66911  51.6304 107.2150 0003934 254.2011 105.8545 15.52964022  2707"
      },
      "geometry": {
        "type": "Point",
        "coordinates": [
          4.333392326626012,
          -51.117992540035125
        ]
      }
    },
    {
      "type": "Feature",
      "properties": {
        "norad_id": 66912,
        "name": "1998-067XY",
        "group": "stations",
        "lat": -25.65007416404607,
        "lon": -52.47813121852029,
        "alt_km": 412.9997750944549,
        "timestamp": "2025-12-20T05:41:48.772565+00:00",
        "meta_object_name": "1998-067XY",
        "meta_object_id": "1998-067XY",
        "meta_epoch": "2025-12-19T14:52:14.043072",
        "meta_mean_motion": 15.51780846,
        "meta_eccentricity": 0.0004012,
        "meta_inclination": 51.6307,
        "meta_ra_of_asc_node": 108.231,
        "meta_arg_of_pericenter": 260.881,
        "meta_mean_anomaly": 99.1725,
        "meta_ephemeris_type": 0,
        "meta_classification_type": "U",
        "meta_norad_cat_id": 66912,
        "meta_element_set_no": 999,
        "meta_rev_at_epoch": 267,
        "meta_bstar": 0.00063264,
        "meta_mean_motion_dot": 0.00038197,
        "meta_mean_motion_ddot": 0,
        "tle_line1": "1 66912U 98067XY  25353.61960698  .00038197  00000+0  63264-3 0  9998",
        "tle_line2": "2 66912  51.6307 108.2310 0004012 260.8810  99.1725 15.51780846  2678"
      },
      "geometry": {
        "type": "Point",
        "coordinates": [
          -52.47813121852029,
          -25.65007416404607
        ]
      }
    }
  ]
}